TEVEL2-4                
1 63213U 25052D   26078.69316043  .00013410  00000+0  44549-3 0  9991
2 63213  97.4009 335.1011 0004697  76.1279 284.0485 15.31317032 56400
TEVEL2-5                
1 63214U 25052E   26078.50887298  .00013235  00000+0  44151-3 0  9991
2 63214  97.4010 334.8877 0004678  76.6112 283.5650 15.31184273 56372
TEVEL2-6                
1 63215U 25052F   26078.51895868  .00013506  00000+0  45103-3 0  9994
2 63215  97.4013 334.8835 0004793  76.8237 283.3539 15.31144127 56376
TEVEL2-1                
1 63217U 25052H   26078.65067416  .00013272  00000+0  44915-3 0  9991
2 63217  97.3986 334.7370 0004910  84.8634 275.3167 15.30717063 56383
TEVEL2-3                
1 63218U 25052J   26078.45190524  .00013342  00000+0  45106-3 0  9998
2 63218  97.3990 334.5515 0005030  86.0162 274.1654 15.30749740 56354
TEVEL2-2                
1 63219U 25052K   26078.65131642  .00013392  00000+0  45312-3 0  9991
2 63219  97.3987 334.7388 0004916  85.5802 274.6001 15.30720417 56382
TEVEL2-9                
1 63237U 25052AD  26078.25829188  .00011974  00000+0  42757-3 0  9990
2 63237  97.4050 333.8997 0008459  98.1024 262.1176 15.28971800 56276
TEVEL2-7                
1 63238U 25052AE  26078.67670665  .00011544  00000+0  41502-3 0  9991
2 63238  97.4051 334.2647 0008582  97.4393 262.7823 15.28756457 56334
TEVEL2-8                
1 63239U 25052AF  26078.68386991  .00011404  00000+0  41030-3 0  9990
2 63239  97.4050 334.2525 0008603  97.6790 262.5427 15.28735209 56336
HADES-ICM               
1 63492U 25052BN  26078.65026712  .00108423  00000+0  13384-2 0  9998
2 63492  97.3904 339.4797 0008895  92.1528 268.0747 15.59753203 56697
INNOSAT 16 (RS92S7)     
1 64878U 25155C   26078.89199316  .00006014  00000+0  24831-3 0  9991
2 64878  97.4483  46.4235 0012069 132.7178 227.5077 15.24331296 67066
GEOSCAN 6 (RS92S6)      
1 64879U 25155D   26078.93032469  .00010607  00000+0  38769-3 0  9990
2 64879  97.4481  47.3047 0009817 124.0739 236.1434 15.28228186 67127
GEOSCAN 1 (RS92S1)      
1 64880U 25155E   26078.89775641  .00010664  00000+0  38459-3 0  9992
2 64880  97.4479  47.3525 0009746 124.2306 235.9858 15.28666472 67121
239ALFEROV (RS61S)      
1 64881U 25155F   26078.91303039  .00013656  00000+0  46814-3 0  9992
2 64881  97.4484  47.6664 0009526 122.7652 237.4508 15.30262721 67141
GEOSCAN 2 (RS92S2)      
1 64890U 25155Q   26078.90810177  .00011007  00000+0  39327-3 0  9996
2 64890  97.4478  47.4779 0009358 112.9783 247.2445 15.28967720 67134
GEOSCAN 5 (RS92S5)      
1 64891U 25155R   26078.92097222  .00014118  00000+0  47906-3 0  9995
2 64891  97.4476  47.7768 0008208 126.3560 233.8440 15.30596343 67159
GEOSCAN 4 (RS92S4)      
1 64892U 25155S   26078.91265491  .00013833  00000+0  46793-3 0  9996
2 64892  97.4479  47.7950 0008251 126.6034 233.5967 15.30702026 67151
GEOSCAN 3 (RS92S3)      
1 64893U 25155T   26078.94683264  .00016126  00000+0  52191-3 0  9999
2 64893  97.4471  48.0404 0008001 126.7711 233.4266 15.32095585 67178
INNOSAT 3 (RS92S0)      
1 64894U 25155U   26078.94518634  .00031965  00000+0  86988-3 0  9997
2 64894  97.4440  48.7653 0007944 122.8068 237.3942 15.37428633 67224
KNACKSAT-2              
1 67683U 98067XZ  26078.89955716  .00032874  00000+0  52880-3 0  9992
2 67683  51.6326  21.0860 0009730 222.0141 138.0103 15.52629641  6376
